STARLINK-30114          
1 56826U 23079D   25257.53934505 -.00000242  00000+0 -28528-5 0  9992
2 56826  43.0050 344.6052 0001254 268.1042  91.9657 15.02534568126702
STARLINK-30151          
1 56827U 23079E   25258.24731658 -.00000288  00000+0 -62659-5 0  9999
2 56827  43.0045 340.6425 0001207 270.5536  89.5168 15.02534768126498
STARLINK-30152          
1 56828U 23079F   25258.24399047 -.00000198  00000+0  40632-6 0  9999
2 56828  43.0042 340.6234 0001118 266.5473  93.5242 15.02536474126494
STARLINK-30128          
1 56832U 23079K   25257.88331801  .00000415  00000+0  45815-4 0  9994
2 56832  43.0023 316.6560 0001371 272.6344  87.4341 15.02535859120334
STARLINK-30131          
1 56833U 23079L   25258.20463354  .00000408  00000+0  45259-4 0  9995
2 56833  43.0030 314.9284 0001471 280.6171  79.4506 15.02534044126789
STARLINK-30069          
1 56834U 23079M   25257.96184033 -.00000559  00000+0 -25652-4 0  9996
2 56834  43.0043 341.9479 0001383 268.8349  91.2335 15.03343126126453
STARLINK-30144          
1 56835U 23079N   25258.23732456  .00000756  00000+0  71055-4 0  9991
2 56835  43.0071 340.5806 0001357 275.1217  84.9470 15.02539882126498
STARLINK-30142          
1 56836U 23079P   25257.70218015 -.00000536  00000+0 -24610-4 0  9996
2 56836  43.0047 343.4377 0001457 269.3523  90.7152 15.02543827126411
STARLINK-30133          
1 56837U 23079Q   25258.23067252 -.00000662  00000+0 -33950-4 0  9998
2 56837  43.0061 340.5135 0001943 269.0285  91.0335 15.02533460126497
STARLINK-30123          
1 56838U 23079R   25258.17598162  .00000252  00000+0  18665-4 0  9990
2 56838  42.9998 305.1430 0000991 269.6699  90.4039 15.27575631126900
STARLINK-30076          
1 56839U 23079S   25257.96143007 -.00000484  00000+0 -20768-4 0  9997
2 56839  43.0061 341.9286 0001235 270.4653  89.6048 15.02533893126450
STARLINK-30073          
1 56840U 23079T   25258.00010417  .00171809  00000+0  36691-2 0  9991
2 56840  42.9948 258.4961 0014745 120.2941 185.1147 15.43391390  5848
STARLINK-30078          
1 56841U 23079U   25257.89971464 -.00002766  00000+0 -91005-4 0  9995
2 56841  43.0050 332.1342 0001549 264.7423  95.3252 15.27586958126565
STARLINK-30135          
1 56842U 23079V   25257.93156331  .00000001  00000+0  15164-4 0  9999
2 56842  43.0054 342.4795 0001720 271.5779  88.4867 15.02536466126441
STARLINK-30137          
1 56843U 23079W   25258.25063346  .00001166  00000+0  10133-3 0  9992
2 56843  43.0041 340.5760 0001329 277.7251  82.3441 15.02539987126494
STARLINK-30136          
1 56844U 23079X   25258.27727302  .00000111  00000+0  23270-4 0  9990
2 56844  43.0026 340.7639 0001318 276.1265  83.9427 15.02535154126494
