[{"OBJECT_NAME":"STARLINK-30114","OBJECT_ID":"2023-079D","EPOCH":"2025-09-14T12:56:39.412320","MEAN_MOTION":15.02534568,"ECCENTRICITY":0.0001254,"INCLINATION":43.005,"RA_OF_ASC_NODE":344.6052,"ARG_OF_PERICENTER":268.1042,"MEAN_ANOMALY":91.9657,"EPHEMERIS_TYPE":0,"CLASSIFICATION_TYPE":"U","NORAD_CAT_ID":56826,"ELEMENT_SET_NO":999,"REV_AT_EPOCH":12670,"BSTAR":-2.852751e-6,"MEAN_MOTION_DOT":-2.42e-6,"MEAN_MOTION_DDOT":0},{"OBJECT_NAME":"STARLINK-30151","OBJECT_ID":"2023-079E","EPOCH":"2025-09-15T05:56:08.152512","MEAN_MOTION":15.02534768,"ECCENTRICITY":0.00012075,"INCLINATION":43.0045,"RA_OF_ASC_NODE":340.6425,"ARG_OF_PERICENTER":270.5536,"MEAN_ANOMALY":89.5168,"EPHEMERIS_TYPE":0,"CLASSIFICATION_TYPE":"U","NORAD_CAT_ID":56827,"ELEMENT_SET_NO":999,"REV_AT_EPOCH":12649,"BSTAR":-6.265864e-6,"MEAN_MOTION_DOT":-2.88e-6,"MEAN_MOTION_DDOT":0},{"OBJECT_NAME":"STARLINK-30152","OBJECT_ID":"2023-079F","EPOCH":"2025-09-15T05:51:20.776608","MEAN_MOTION":15.02536474,"ECCENTRICITY":0.0001118,"INCLINATION":43.0042,"RA_OF_ASC_NODE":340.6234,"ARG_OF_PERICENTER":266.5473,"MEAN_ANOMALY":93.5242,"EPHEMERIS_TYPE":0,"CLASSIFICATION_TYPE":"U","NORAD_CAT_ID":56828,"ELEMENT_SET_NO":999,"REV_AT_EPOCH":12649,"BSTAR":4.06316e-7,"MEAN_MOTION_DOT":-1.98e-6,"MEAN_MOTION_DDOT":0},{"OBJECT_NAME":"STARLINK-30128","OBJECT_ID":"2023-079K","EPOCH":"2025-09-14T21:11:58.676064","MEAN_MOTION":15.02535859,"ECCENTRICITY":0.00013713,"INCLINATION":43.0023,"RA_OF_ASC_NODE":316.656,"ARG_OF_PERICENTER":272.6344,"MEAN_ANOMALY":87.4341,"EPHEMERIS_TYPE":0,"CLASSIFICATION_TYPE":"U","NORAD_CAT_ID":56832,"ELEMENT_SET_NO":999,"REV_AT_EPOCH":12033,"BSTAR":4.5814621e-5,"MEAN_MOTION_DOT":4.15e-6,"MEAN_MOTION_DDOT":0},{"OBJECT_NAME":"STARLINK-30131","OBJECT_ID":"2023-079L","EPOCH":"2025-09-15T04:54:40.337856","MEAN_MOTION":15.02534044,"ECCENTRICITY":0.00014712,"INCLINATION":43.003,"RA_OF_ASC_NODE":314.9284,"ARG_OF_PERICENTER":280.6171,"MEAN_ANOMALY":79.4506,"EPHEMERIS_TYPE":0,"CLASSIFICATION_TYPE":"U","NORAD_CAT_ID":56833,"ELEMENT_SET_NO":999,"REV_AT_EPOCH":12678,"BSTAR":4.5259353e-5,"MEAN_MOTION_DOT":4.08e-6,"MEAN_MOTION_DDOT":0},{"OBJECT_NAME":"STARLINK-30069","OBJECT_ID":"2023-079M","EPOCH":"2025-09-14T23:05:03.004512","MEAN_MOTION":15.03343126,"ECCENTRICITY":0.00013837,"INCLINATION":43.0043,"RA_OF_ASC_NODE":341.9479,"ARG_OF_PERICENTER":268.8349,"MEAN_ANOMALY":91.2335,"EPHEMERIS_TYPE":0,"CLASSIFICATION_TYPE":"U","NORAD_CAT_ID":56834,"ELEMENT_SET_NO":999,"REV_AT_EPOCH":12645,"BSTAR":-2.5652422e-5,"MEAN_MOTION_DOT":-5.59e-6,"MEAN_MOTION_DDOT":0},{"OBJECT_NAME":"STARLINK-30144","OBJECT_ID":"2023-079N","EPOCH":"2025-09-15T05:41:44.841984","MEAN_MOTION":15.02539882,"ECCENTRICITY":0.00013572,"INCLINATION":43.0071,"RA_OF_ASC_NODE":340.5806,"ARG_OF_PERICENTER":275.1217,"MEAN_ANOMALY":84.947,"EPHEMERIS_TYPE":0,"CLASSIFICATION_TYPE":"U","NORAD_CAT_ID":56835,"ELEMENT_SET_NO":999,"REV_AT_EPOCH":12649,"BSTAR":7.1054529e-5,"MEAN_MOTION_DOT":7.56e-6,"MEAN_MOTION_DDOT":0},{"OBJECT_NAME":"STARLINK-30142","OBJECT_ID":"2023-079P","EPOCH":"2025-09-14T16:51:08.364960","MEAN_MOTION":15.02543827,"ECCENTRICITY":0.00014575,"INCLINATION":43.0047,"RA_OF_ASC_NODE":343.4377,"ARG_OF_PERICENTER":269.3523,"MEAN_ANOMALY":90.7152,"EPHEMERIS_TYPE":0,"CLASSIFICATION_TYPE":"U","NORAD_CAT_ID":56836,"ELEMENT_SET_NO":999,"REV_AT_EPOCH":12641,"BSTAR":-2.4610224e-5,"MEAN_MOTION_DOT":-5.36e-6,"MEAN_MOTION_DDOT":0},{"OBJECT_NAME":"STARLINK-30133","OBJECT_ID":"2023-079Q","EPOCH":"2025-09-15T05:32:10.105728","MEAN_MOTION":15.0253346,"ECCENTRICITY":0.00019438,"INCLINATION":43.0061,"RA_OF_ASC_NODE":340.5135,"ARG_OF_PERICENTER":269.0285,"MEAN_ANOMALY":91.0335,"EPHEMERIS_TYPE":0,"CLASSIFICATION_TYPE":"U","NORAD_CAT_ID":56837,"ELEMENT_SET_NO":999,"REV_AT_EPOCH":12649,"BSTAR":-3.3950221e-5,"MEAN_MOTION_DOT":-6.62e-6,"MEAN_MOTION_DDOT":0},{"OBJECT_NAME":"STARLINK-30123","OBJECT_ID":"2023-079R","EPOCH":"2025-09-15T04:13:24.811968","MEAN_MOTION":15.27575631,"ECCENTRICITY":9.915e-5,"INCLINATION":42.9998,"RA_OF_ASC_NODE":305.143,"ARG_OF_PERICENTER":269.6699,"MEAN_ANOMALY":90.4039,"EPHEMERIS_TYPE":0,"CLASSIFICATION_TYPE":"U","NORAD_CAT_ID":56838,"ELEMENT_SET_NO":999,"REV_AT_EPOCH":12690,"BSTAR":1.8664558e-5,"MEAN_MOTION_DOT":2.52e-6,"MEAN_MOTION_DDOT":0},{"OBJECT_NAME":"STARLINK-30076","OBJECT_ID":"2023-079S","EPOCH":"2025-09-14T23:04:27.558048","MEAN_MOTION":15.02533893,"ECCENTRICITY":0.00012355,"INCLINATION":43.0061,"RA_OF_ASC_NODE":341.9286,"ARG_OF_PERICENTER":270.4653,"MEAN_ANOMALY":89.6048,"EPHEMERIS_TYPE":0,"CLASSIFICATION_TYPE":"U","NORAD_CAT_ID":56839,"ELEMENT_SET_NO":999,"REV_AT_EPOCH":12645,"BSTAR":-2.0768052e-5,"MEAN_MOTION_DOT":-4.84e-6,"MEAN_MOTION_DDOT":0},{"OBJECT_NAME":"STARLINK-30073","OBJECT_ID":"2023-079T","EPOCH":"2025-09-15T00:00:09.000288","MEAN_MOTION":15.4339139,"ECCENTRICITY":0.00147458,"INCLINATION":42.9948,"RA_OF_ASC_NODE":258.4961,"ARG_OF_PERICENTER":120.2941,"MEAN_ANOMALY":185.1147,"EPHEMERIS_TYPE":0,"CLASSIFICATION_TYPE":"U","NORAD_CAT_ID":56840,"ELEMENT_SET_NO":999,"REV_AT_EPOCH":584,"BSTAR":0.0036690994,"MEAN_MOTION_DOT":0.00171809,"MEAN_MOTION_DDOT":0},{"OBJECT_NAME":"STARLINK-30078","OBJECT_ID":"2023-079U","EPOCH":"2025-09-14T21:35:35.344896","MEAN_MOTION":15.27586958,"ECCENTRICITY":0.00015491,"INCLINATION":43.005,"RA_OF_ASC_NODE":332.1342,"ARG_OF_PERICENTER":264.7423,"MEAN_ANOMALY":95.3252,"EPHEMERIS_TYPE":0,"CLASSIFICATION_TYPE":"U","NORAD_CAT_ID":56841,"ELEMENT_SET_NO":999,"REV_AT_EPOCH":12656,"BSTAR":-9.1004837e-5,"MEAN_MOTION_DOT":-2.766e-5,"MEAN_MOTION_DDOT":0},{"OBJECT_NAME":"STARLINK-30135","OBJECT_ID":"2023-079V","EPOCH":"2025-09-14T22:21:27.069984","MEAN_MOTION":15.02536466,"ECCENTRICITY":0.00017204,"INCLINATION":43.0054,"RA_OF_ASC_NODE":342.4795,"ARG_OF_PERICENTER":271.5779,"MEAN_ANOMALY":88.4867,"EPHEMERIS_TYPE":0,"CLASSIFICATION_TYPE":"U","NORAD_CAT_ID":56842,"ELEMENT_SET_NO":999,"REV_AT_EPOCH":12644,"BSTAR":1.5164242e-5,"MEAN_MOTION_DOT":1.0e-8,"MEAN_MOTION_DDOT":0},{"OBJECT_NAME":"STARLINK-30137","OBJECT_ID":"2023-079W","EPOCH":"2025-09-15T06:00:54.730944","MEAN_MOTION":15.02539987,"ECCENTRICITY":0.00013291,"INCLINATION":43.0041,"RA_OF_ASC_NODE":340.576,"ARG_OF_PERICENTER":277.7251,"MEAN_ANOMALY":82.3441,"EPHEMERIS_TYPE":0,"CLASSIFICATION_TYPE":"U","NORAD_CAT_ID":56843,"ELEMENT_SET_NO":999,"REV_AT_EPOCH":12649,"BSTAR":0.00010133077,"MEAN_MOTION_DOT":1.166e-5,"MEAN_MOTION_DDOT":0},{"OBJECT_NAME":"STARLINK-30136","OBJECT_ID":"2023-079X","EPOCH":"2025-09-15T06:39:16.388928","MEAN_MOTION":15.02535154,"ECCENTRICITY":0.0001318,"INCLINATION":43.0026,"RA_OF_ASC_NODE":340.7639,"ARG_OF_PERICENTER":276.1265,"MEAN_ANOMALY":83.9427,"EPHEMERIS_TYPE":0,"CLASSIFICATION_TYPE":"U","NORAD_CAT_ID":56844,"ELEMENT_SET_NO":999,"REV_AT_EPOCH":12649,"BSTAR":2.3270158e-5,"MEAN_MOTION_DOT":1.11e-6,"MEAN_MOTION_DDOT":0}]
